SatCatId,ObjectName,LaunchYear,OrbitalPeriod,LaunchMass,StatusCode,Inclination,Status,UcsData,OrbitClassEstimated,LaunchSiteCountry,Owner,UseType,Purpose,LaunchVehicleClass,TLE1,TLE2,MeanMotion,Eccentricity,OrbitClass
54121,ONEWEB-0503,2022,109.11,148.0,+,87.92,Active,1,LEO,India,UK,Commercial,Communications,PSLV,1 54121U 22138J   23274.20102137  .00000186  00000+0  43167-3 0  9991,2 54121  87.9231 142.0079 0001517  91.6955 268.4352 13.19729738 47110,13.19729738,0.0001517,LEO
54122,ONEWEB-0504,2022,109.11,148.0,+,87.92,Active,1,LEO,India,UK,Commercial,Communications,PSLV,1 54122U 22138K   23273.35441222  .00000110  00000+0  24137-3 0  9991,2 54122  87.9236 142.1760 0002052  89.9844 270.1524 13.19725472 47017,13.19725472,0.0002052,LEO
54123,ONEWEB-0505,2022,109.11,148.0,+,87.92,Active,1,LEO,India,UK,Commercial,Communications,PSLV,1 54123U 22138L   23274.18523858  .00000042  00000+0  73169-4 0  9994,2 54123  87.9230 142.0098 0002066  90.0405 270.0964 13.19725655 47106,13.19725655,0.0002066,LEO
54124,ONEWEB-0506,2022,109.11,148.0,+,87.92,Active,1,LEO,India,UK,Commercial,Communications,PSLV,1 54124U 22138M   23273.40179988  .00000003  00000+0 -25027-4 0  9998,2 54124  87.9235 142.1620 0002073  79.9011 280.2356 13.19724574 46994,13.19724574,0.0002073,LEO
54125,ONEWEB-0507,2022,109.11,148.0,+,87.92,Active,1,LEO,India,UK,Commercial,Communications,PSLV,1 54125U 22138N   23273.72558954  .00000180  00000+0  41618-3 0  9996,2 54125  87.9180 142.1180 0002053  78.5379 281.5984 13.19723856 47089,13.19723856,0.0002053,LEO
54126,ONEWEB-0508,2022,109.11,148.0,+,87.92,Active,1,LEO,India,UK,Commercial,Communications,PSLV,1 54126U 22138P   23274.17733171  .00000099  00000+0  21425-3 0  9996,2 54126  87.9228 142.0154 0002399  79.0231 281.1172 13.19724118 47121,13.19724118,0.0002399,LEO
54127,ONEWEB-0509,2022,109.11,148.0,+,87.92,Active,1,LEO,India,UK,Commercial,Communications,PSLV,1 54127U 22138Q   23274.15206732  .00000074  00000+0  15162-3 0  9997,2 54127  87.9228 142.0178 0001912  80.1053 280.0295 13.19725284 47098,13.19725284,0.0001912,LEO
54128,ONEWEB-0510,2022,109.03,148.0,+,87.92,Active,1,LEO,India,UK,Commercial,Communications,PSLV,1 54128U 22138R   23274.06652711  .00000110  00000+0  23950-3 0  9995,2 54128  87.9210 111.5057 0001942  72.5190 287.6155 13.20771667 49488,13.20771667,0.0001942,LEO
54129,ONEWEB-0511,2022,109.11,148.0,+,87.92,Active,1,LEO,India,UK,Commercial,Communications,PSLV,1 54129U 22138S   23274.14891095  .00000621  00000+0  15194-2 0  9992,2 54129  87.9220 142.0189 0001767  97.9015 262.2318 13.19728362 47128,13.19728362,0.0001767,LEO
54130,ONEWEB-0512,2022,109.11,148.0,+,87.92,Active,1,LEO,India,UK,Commercial,Communications,PSLV,1 54130U 22138T   23274.36846416  .00000064  00000+0  12770-3 0  9994,2 54130  87.9228 141.9749 0002312  83.6004 276.5392 13.19725489 47122,13.19725489,0.0002312,LEO
54131,ONEWEB-0513,2022,109.11,148.0,+,87.92,Active,1,LEO,India,UK,Commercial,Communications,PSLV,1 54131U 22138U   23274.18760481  .00000069  00000+0  14074-3 0  9996,2 54131  87.9229 142.0149 0002403  90.8884 269.2524 13.19725168 46980,13.19725168,0.0002403,LEO
54132,ONEWEB-0514,2022,109.11,148.0,+,87.92,Active,1,LEO,India,UK,Commercial,Communications,PSLV,1 54132U 22138V   23274.15681560  .00000968  00000+0  23865-2 0  9999,2 54132  87.9233 142.0198 0001773  81.4928 278.6406 13.19721733 47117,13.19721733,0.0001773,LEO
54133,ONEWEB-0515,2022,109.03,148.0,+,87.92,Active,1,LEO,India,UK,Commercial,Communications,PSLV,1 54133U 22138W   23274.05388814  .00000154  00000+0  34561-3 0  9998,2 54133  87.9161 111.5385 0001411  50.9244 309.2015 13.20773199 49471,13.20773199,0.0001411,LEO
54134,ONEWEB-0516,2022,109.11,148.0,+,87.92,Active,1,LEO,India,UK,Commercial,Communications,PSLV,1 54134U 22138X   23274.13152252 -.00000033  00000+0 -11508-3 0  9997,2 54134  87.9231 142.0210 0001872  75.3569 284.7771 13.19724674 47115,13.19724674,0.0001872,LEO
54135,ONEWEB-0517,2022,109.11,148.0,+,87.92,Active,1,LEO,India,UK,Commercial,Communications,PSLV,1 54135U 22138Y   23274.18680836 -.00000306  00000+0 -79548-3 0  9998,2 54135  87.9230 142.0105 0002115  85.8607 274.2767 13.19726459 47121,13.19726459,0.0002115,LEO
54136,ONEWEB-0518,2022,109.11,148.0,+,87.92,Active,1,LEO,India,UK,Commercial,Communications,PSLV,1 54136U 22138Z   23274.20577059 -.00000081  00000+0 -23417-3 0  9998,2 54136  87.9239 142.0056 0002084  81.4831 278.6538 13.19722385 47120,13.19722385,0.0002084,LEO
54137,ONEWEB-0519,2022,109.11,148.0,+,87.92,Active,1,LEO,India,UK,Commercial,Communications,PSLV,1 54137U 22138AA  23274.15522069  .00000029  00000+0  41225-4 0  9992,2 54137  87.9227 142.0148 0002172  87.1237 273.0145 13.19724594 47128,13.19724594,0.0002172,LEO
54138,ONEWEB-0520,2022,109.11,148.0,+,87.92,Active,1,LEO,India,UK,Commercial,Communications,PSLV,1 54138U 22138AB  23274.18998651  .00000087  00000+0  18433-3 0  9998,2 54138  87.9232 142.0097 0002344  78.4643 281.6753 13.19724413 47112,13.19724413,0.0002344,LEO
54139,ONEWEB-0521,2022,109.11,148.0,+,87.92,Active,1,LEO,India,UK,Commercial,Communications,PSLV,1 54139U 22138AC  23274.14732262  .00000172  00000+0  39742-3 0  9990,2 54139  87.9229 142.0149 0001628  88.4485 271.6834 13.19725647 47081,13.19725647,0.0001628,LEO
54140,ONEWEB-0522,2022,109.11,148.0,+,87.92,Active,1,LEO,India,UK,Commercial,Communications,PSLV,1 54140U 22138AD  23274.20260139  .00000137  00000+0  31093-3 0  9990,2 54140  87.9231 142.0062 0001859  75.7496 284.3843 13.19724011 47105,13.19724011,0.0001859,LEO
54141,ONEWEB-0523,2022,109.03,148.0,+,87.92,Active,1,LEO,India,UK,Commercial,Communications,PSLV,1 54141U 22138AE  23274.04127953  .00000178  00000+0  40525-3 0  9994,2 54141  87.9160 111.5674 0000546  66.1865 293.9325 13.20772067 49472,13.20772067,5.46e-05,LEO
54142,ONEWEB-0524,2022,109.03,148.0,+,87.92,Active,1,LEO,India,UK,Commercial,Communications,PSLV,1 54142U 22138AF  23274.10441168  .00000071  00000+0  14220-3 0  9994,2 54142  87.9188 111.5340 0001723  43.0445 317.0823 13.20771112 49481,13.20771112,0.0001723,LEO
54143,ONEWEB-0525,2022,109.11,148.0,+,87.92,Active,1,LEO,India,UK,Commercial,Communications,PSLV,1 54143U 22138AG  23274.06994526  .00000132  00000+0  29848-3 0  9991,2 54143  87.9235 142.0344 0002120  79.4421 280.6951 13.19726356 47109,13.19726356,0.000212,LEO
54144,ONEWEB-0526,2022,109.11,148.0,+,87.92,Active,1,LEO,India,UK,Commercial,Communications,PSLV,1 54144U 22138AH  23274.17891871  .00000047  00000+0  85238-4 0  9994,2 54144  87.9231 142.0127 0001883  75.4476 284.6866 13.19724914 47091,13.19724914,0.0001883,LEO
54145,ONEWEB-0529,2022,109.11,148.0,+,87.92,Active,1,LEO,India,UK,Commercial,Communications,PSLV,1 54145U 22138AJ  23274.18207722  .00000100  00000+0  21675-3 0  9996,2 54145  87.9230 142.0107 0002178  76.2396 283.8979 13.19728468 47114,13.19728468,0.0002178,LEO
54146,ONEWEB-0531,2022,109.03,148.0,+,87.92,Active,1,LEO,India,UK,Commercial,Communications,PSLV,1 54146U 22138AK  23273.78875036  .00000036  00000+0  56206-4 0  9998,2 54146  87.9201 111.5790 0000995  43.4756 316.6456 13.20770419 49441,13.20770419,9.95e-05,LEO
54147,ONEWEB-0535,2022,109.11,148.0,+,87.92,Active,1,LEO,India,UK,Commercial,Communications,PSLV,1 54147U 22138AL  23274.36687447  .00004331  00000+0  10776-1 0  9992,2 54147  87.9231 141.9748 0002218  75.8997 284.2382 13.19756153 47152,13.19756153,0.0002218,LEO
54148,ONEWEB-0536,2022,109.03,148.0,+,87.92,Active,1,LEO,India,UK,Commercial,Communications,PSLV,1 54148U 22138AM  23274.45791329 -.00000231  00000+0 -59965-3 0  9990,2 54148  87.9198 111.4954 0000633 101.1193 259.0012 13.20771092 49520,13.20771092,6.33e-05,LEO
54150,GONETS-M 23,2022,115.86,-1.0,+,82.5,Active,0,LEO,Russia,Russia/USSR,Unknown,Unknown,Soyuz,1 54150U 22139A   23274.38703524  .00000015  00000+0  33975-4 0  9998,2 54150  82.5032 243.3273 0019945 219.6474 140.3148 12.42890050 42684,12.4289005,0.0019945,LEO
54151,GONETS-M 24,2022,115.86,-1.0,+,82.49,Active,0,LEO,Russia,Russia/USSR,Unknown,Unknown,Soyuz,1 54151U 22139B   23274.43863024  .00000026  00000+0  11450-3 0  9992,2 54151  82.4951 243.0213 0014767 229.2074 130.7725 12.42889211 42697,12.42889211,0.0014767,LEO
54152,GONETS-M 25,2022,115.86,-1.0,+,82.5,Active,0,LEO,Russia,Russia/USSR,Unknown,Unknown,Soyuz,1 54152U 22139C   23274.50557053  .00000022  00000+0  91676-4 0  9998,2 54152  82.5015 243.1379 0018568 228.5728 131.3757 12.42879888 42708,12.42879888,0.0018568,LEO
54153,SKIF-D,2022,287.75,-1.0,+,90.0,Active,0,MEO,Russia,Russia/USSR,Unknown,Unknown,Soyuz,1 54153U 22139D   23273.15791239  .00000034  00000+0  00000+0 0  9994,2 54153  89.9981  96.7926 0008357 119.8634 240.2809  5.00428965 14524,5.00428965,0.0008357,MEO
54157,STARLINK-5290,2022,95.44,260.0,+,53.22,Active,1,LEO,USA,USA,Commercial,Communications,Falcon,1 54157U 22141A   23273.67578629  .00003259  00000+0  22271-3 0  9994,2 54157  53.2181  54.0889 0001450  99.0453 261.0704 15.08848287 51207,15.08848287,0.000145,LEO
54158,STARLINK-5297,2022,95.44,260.0,+,53.22,Active,1,LEO,USA,USA,Commercial,Communications,Falcon,1 54158U 22141B   23274.41179439  .00001410  00000+0  10663-3 0  9993,2 54158  53.2175  50.8594 0001266  77.5788 282.5346 15.08844930 51318,15.0884493,0.0001266,LEO
54159,STARLINK-5294,2022,95.44,260.0,+,53.22,Active,1,LEO,USA,USA,Commercial,Communications,Falcon,1 54159U 22141C   23273.67947293 -.00000090  00000+0  12411-4 0  9990,2 54159  53.2182  54.1220 0001401  91.1034 269.0119 15.08842614 51200,15.08842614,0.0001401,LEO
54160,STARLINK-5233,2022,95.44,260.0,+,53.22,Active,1,LEO,USA,USA,Commercial,Communications,Falcon,1 54160U 22141D   23273.99087276  .00000482  00000+0  48393-4 0  9995,2 54160  53.2189   7.5902 0001425  82.9772 277.1382 15.08843534 51889,15.08843534,0.0001425,LEO
54161,STARLINK-5269,2022,95.44,260.0,+,53.22,Active,1,LEO,USA,USA,Commercial,Communications,Falcon,1 54161U 22141E   23274.07786985  .00006788  00000+0  44398-3 0  9994,2 54161  53.2180  52.3294 0001379  68.6391 291.4748 15.08853698 51268,15.08853698,0.0001379,LEO
